{
  "type": "FeatureCollection",
  "features": [
    {
      "type": "Feature",
      "properties": {
        "norad_id": 2807,
        "name": "OPS 7218 (TRANSIT 16)",
        "group": "nnss",
        "lat": 86.67123800448756,
        "lon": 168.1206351643039,
        "alt_km": 1045.6455849755494,
        "timestamp": "2025-12-20T14:38:02.238386+00:00",
        "meta_object_name": "OPS 7218 (TRANSIT 16)",
        "meta_object_id": "1967-048A",
        "meta_epoch": "2025-12-20T02:04:17.194368",
        "meta_mean_motion": 13.50723755,
        "meta_eccentricity": 0.00221438,
        "meta_inclination": 89.673,
        "meta_ra_of_asc_node": 353.7725,
        "meta_arg_of_pericenter": 94.5084,
        "meta_mean_anomaly": 335.0389,
        "meta_ephemeris_type": 0,
        "meta_classification_type": "U",
        "meta_norad_cat_id": 2807,
        "meta_element_set_no": 999,
        "meta_rev_at_epoch": 88375,
        "meta_bstar": 0.00014543978,
        "meta_mean_motion_dot": 1.04e-06,
        "meta_mean_motion_ddot": 0,
        "tle_line1": "1 02807U 67048A   25354.08631012  .00000104  00000+0  14544-3 0  9997",
        "tle_line2": "2 02807  89.6730 353.7725 0022143  94.5084 335.0389 13.50723755883756"
      },
      "geometry": {
        "type": "Point",
        "coordinates": [
          168.1206351643039,
          86.67123800448756
        ]
      }
    },
    {
      "type": "Feature",
      "properties": {
        "norad_id": 2965,
        "name": "OPS 4947 (TRANSIT 17)",
        "group": "nnss",
        "lat": -55.37098677325761,
        "lon": -155.07609150318874,
        "alt_km": 1034.9793443624822,
        "timestamp": "2025-12-20T14:38:02.238410+00:00",
        "meta_object_name": "OPS 4947 (TRANSIT 17)",
        "meta_object_id": "1967-092A",
        "meta_epoch": "2025-12-20T03:07:42.632256",
        "meta_mean_motion": 13.53455414,
        "meta_eccentricity": 0.00466956,
        "meta_inclination": 89.2488,
        "meta_ra_of_asc_node": 23.8719,
        "meta_arg_of_pericenter": 212.481,
        "meta_mean_anomaly": 208.1838,
        "meta_ephemeris_type": 0,
        "meta_classification_type": "U",
        "meta_norad_cat_id": 2965,
        "meta_element_set_no": 999,
        "meta_rev_at_epoch": 87197,
        "meta_bstar": 0.00019201817,
        "meta_mean_motion_dot": 1.41e-06,
        "meta_mean_motion_ddot": 0,
        "tle_line1": "1 02965U 67092A   25354.13035454  .00000141  00000+0  19202-3 0  9992",
        "tle_line2": "2 02965  89.2488  23.8719 0046695 212.4810 208.1838 13.53455414871978"
      },
      "geometry": {
        "type": "Point",
        "coordinates": [
          -155.07609150318874,
          -55.37098677325761
        ]
      }
    },
    {
      "type": "Feature",
      "properties": {
        "norad_id": 3133,
        "name": "OPS 7034 (TRANSIT 18)",
        "group": "nnss",
        "lat": -29.32874983960468,
        "lon": -86.32277158371593,
        "alt_km": 1127.776238067454,
        "timestamp": "2025-12-20T14:38:02.238424+00:00",
        "meta_object_name": "OPS 7034 (TRANSIT 18)",
        "meta_object_id": "1968-012A",
        "meta_epoch": "2025-12-20T04:54:44.983584",
        "meta_mean_motion": 13.5156731,
        "meta_eccentricity": 0.00745727,
        "meta_inclination": 90.0284,
        "meta_ra_of_asc_node": 273.6601,
        "meta_arg_of_pericenter": 147.6112,
        "meta_mean_anomaly": 13.523,
        "meta_ephemeris_type": 0,
        "meta_classification_type": "U",
        "meta_norad_cat_id": 3133,
        "meta_element_set_no": 999,
        "meta_rev_at_epoch": 57019,
        "meta_bstar": 0.00014918933,
        "meta_mean_motion_dot": 1.09e-06,
        "meta_mean_motion_ddot": 0,
        "tle_line1": "1 03133U 68012A   25354.20468731  .00000109  00000+0  14919-3 0  9993",
        "tle_line2": "2 03133  90.0284 273.6601 0074572 147.6112  13.5230 13.51567310570195"
      },
      "geometry": {
        "type": "Point",
        "coordinates": [
          -86.32277158371593,
          -29.32874983960468
        ]
      }
    },
    {
      "type": "Feature",
      "properties": {
        "norad_id": 4507,
        "name": "NNSS 19 (TRANSIT 19)",
        "group": "nnss",
        "lat": -64.0178389523218,
        "lon": -125.45026840192435,
        "alt_km": 960.0503263158325,
        "timestamp": "2025-12-20T14:38:02.238436+00:00",
        "meta_object_name": "NNSS 19 (TRANSIT 19)",
        "meta_object_id": "1970-067A",
        "meta_epoch": "2025-12-20T02:30:18.139104",
        "meta_mean_motion": 13.51316498,
        "meta_eccentricity": 0.01702497,
        "meta_inclination": 90.0051,
        "meta_ra_of_asc_node": 234.539,
        "meta_arg_of_pericenter": 271.8283,
        "meta_mean_anomaly": 86.3378,
        "meta_ephemeris_type": 0,
        "meta_classification_type": "U",
        "meta_norad_cat_id": 4507,
        "meta_element_set_no": 999,
        "meta_rev_at_epoch": 72321,
        "meta_bstar": 0.00013229031,
        "meta_mean_motion_dot": 1.02e-06,
        "meta_mean_motion_ddot": 0,
        "tle_line1": "1 04507U 70067A   25354.10437661  .00000102  00000+0  13229-3 0  9995",
        "tle_line2": "2 04507  90.0051 234.5390 0170249 271.8283  86.3378 13.51316498723214"
      },
      "geometry": {
        "type": "Point",
        "coordinates": [
          -125.45026840192435,
          -64.0178389523218
        ]
      }
    },
    {
      "type": "Feature",
      "properties": {
        "norad_id": 6909,
        "name": "NNSS 20 (TRANSIT 20)",
        "group": "nnss",
        "lat": -37.74969972002586,
        "lon": 75.04759956635195,
        "alt_km": 1110.817746272136,
        "timestamp": "2025-12-20T14:38:02.238448+00:00",
        "meta_object_name": "NNSS 20 (TRANSIT 20)",
        "meta_object_id": "1973-081A",
        "meta_epoch": "2025-12-19T23:34:38.311104",
        "meta_mean_motion": 13.71437816,
        "meta_eccentricity": 0.0156435,
        "meta_inclination": 89.8563,
        "meta_ra_of_asc_node": 254.9457,
        "meta_arg_of_pericenter": 56.8677,
        "meta_mean_anomaly": 304.7387,
        "meta_ephemeris_type": 0,
        "meta_classification_type": "U",
        "meta_norad_cat_id": 6909,
        "meta_element_set_no": 999,
        "meta_rev_at_epoch": 80460,
        "meta_bstar": 0.00023602,
        "meta_mean_motion_dot": 2.43e-06,
        "meta_mean_motion_ddot": 0,
        "tle_line1": "1 06909U 73081A   25353.98238786  .00000243  00000+0  23602-3 0  9996",
        "tle_line2": "2 06909  89.8563 254.9457 0156435  56.8677 304.7387 13.71437816804605"
      },
      "geometry": {
        "type": "Point",
        "coordinates": [
          75.04759956635195,
          -37.74969972002586
        ]
      }
    },
    {
      "type": "Feature",
      "properties": {
        "norad_id": 10457,
        "name": "TRANSAT",
        "group": "nnss",
        "lat": -53.44902722766231,
        "lon": -101.20643789985543,
        "alt_km": 1075.3895687054946,
        "timestamp": "2025-12-20T14:38:02.238459+00:00",
        "meta_object_name": "TRANSAT",
        "meta_object_id": "1977-106A",
        "meta_epoch": "2025-12-20T00:05:57.765984",
        "meta_mean_motion": 13.48944613,
        "meta_eccentricity": 0.0026083,
        "meta_inclination": 89.648,
        "meta_ra_of_asc_node": 78.3399,
        "meta_arg_of_pericenter": 168.68,
        "meta_mean_anomaly": 5.219,
        "meta_ephemeris_type": 0,
        "meta_classification_type": "U",
        "meta_norad_cat_id": 10457,
        "meta_element_set_no": 999,
        "meta_rev_at_epoch": 36841,
        "meta_bstar": 0.00011135,
        "meta_mean_motion_dot": 8e-07,
        "meta_mean_motion_ddot": 0,
        "tle_line1": "1 10457U 77106A   25354.00414081  .00000080  00000+0  11135-3 0  9996",
        "tle_line2": "2 10457  89.6480  78.3399 0026083 168.6800   5.2190 13.48944613368413"
      },
      "geometry": {
        "type": "Point",
        "coordinates": [
          -101.20643789985543,
          -53.44902722766231
        ]
      }
    },
    {
      "type": "Feature",
      "properties": {
        "norad_id": 12458,
        "name": "NOVA 1",
        "group": "nnss",
        "lat": 51.33282436540421,
        "lon": -88.91001439096033,
        "alt_km": 1158.9025113994458,
        "timestamp": "2025-12-20T14:38:02.238470+00:00",
        "meta_object_name": "NOVA 1",
        "meta_object_id": "1981-044A",
        "meta_epoch": "2025-12-20T05:02:58.430400",
        "meta_mean_motion": 13.23279054,
        "meta_eccentricity": 0.00158608,
        "meta_inclination": 89.8528,
        "meta_ra_of_asc_node": 91.2797,
        "meta_arg_of_pericenter": 85.6477,
        "meta_mean_anomaly": 301.5055,
        "meta_ephemeris_type": 0,
        "meta_classification_type": "U",
        "meta_norad_cat_id": 12458,
        "meta_element_set_no": 999,
        "meta_rev_at_epoch": 15285,
        "meta_bstar": 8.0389399e-05,
        "meta_mean_motion_dot": 4.3e-07,
        "meta_mean_motion_ddot": 0,
        "tle_line1": "1 12458U 81044A   25354.21039850  .00000043  00000+0  80389-4 0  9992",
        "tle_line2": "2 12458  89.8528  91.2797 0015860  85.6477 301.5055 13.23279054152850"
      },
      "geometry": {
        "type": "Point",
        "coordinates": [
          -88.91001439096033,
          51.33282436540421
        ]
      }
    }
  ]
}